IRIDIUM 39              
1 25042U 97069D   25337.69523069  .00001203  00000+0  30808-3 0  9991
2 25042  86.3911 138.5107 0019766  99.3283 261.0157 14.49481597473515
IRIDIUM 38              
1 25043U 97069E   25337.79450603  .00000700  00000+0  22380-3 0  9993
2 25043  86.3970 161.8692 0000272 150.9949 209.1264 14.38299546470332
IRIDIUM 42              
1 25077U 97077A   25337.59163346  .00000635  00000+0  20990-3 0  9994
2 25077  86.3980 168.3297 0001266  80.3497 279.7843 14.36518961465514
IRIDIUM 44              
1 25078U 97077B   25337.50537613  .00000677  00000+0  20694-3 0  9995
2 25078  86.3963 149.8530 0002495 137.1267 223.0127 14.40419360468070
IRIDIUM 45              
1 25104U 97082A   25337.72026426  .00036322  00000+0  10427-2 0  9998
2 25104  86.3530 325.1216 0102770  54.3774 306.6993 15.30476945477891
IRIDIUM 24              
1 25105U 97082B   25337.60569524  .00000692  00000+0  20378-3 0  9995
2 25105  86.3918   8.4284 0009605 230.8057 129.2291 14.42313784467630
IRIDIUM 51              
1 25262U 98018A   25337.73421756  .00130513  00000+0  15088-2 0  9994
2 25262  86.3730 330.8616 0051463 313.7612  45.9398 15.59805673473242
IRIDIUM 57              
1 25273U 98019B   25337.78344063  .00000613  00000+0  20407-3 0  9996
2 25273  86.3959  74.1458 0001980  96.7171 263.4251 14.36040354449122
